[{"OBJECT_NAME":"STARLINK-37176","OBJECT_ID":"2026-073P","EPOCH":"2026-04-24T15:32:29.862240","MEAN_MOTION":15.80937773,"ECCENTRICITY":0.00013322,"INCLINATION":97.2841,"RA_OF_ASC_NODE":312.7262,"ARG_OF_PERICENTER":57.0911,"MEAN_ANOMALY":303.0485,"EPHEMERIS_TYPE":0,"CLASSIFICATION_TYPE":"U","NORAD_CAT_ID":68615,"ELEMENT_SET_NO":999,"REV_AT_EPOCH":279,"BSTAR":0.0013423265,"MEAN_MOTION_DOT":0.00266464,"MEAN_MOTION_DDOT":0},{"OBJECT_NAME":"STARLINK-37152","OBJECT_ID":"2026-073Q","EPOCH":"2026-04-25T06:00:02.000160","MEAN_MOTION":15.75225434,"ECCENTRICITY":0.00017017,"INCLINATION":97.2851,"RA_OF_ASC_NODE":313.3295,"ARG_OF_PERICENTER":87.1739,"MEAN_ANOMALY":17.8261,"EPHEMERIS_TYPE":0,"CLASSIFICATION_TYPE":"U","NORAD_CAT_ID":68616,"ELEMENT_SET_NO":999,"REV_AT_EPOCH":318,"BSTAR":-0.00071571436,"MEAN_MOTION_DOT":-0.00105741,"MEAN_MOTION_DDOT":0},{"OBJECT_NAME":"STARLINK-37186","OBJECT_ID":"2026-073R","EPOCH":"2026-04-24T12:28:01.865856","MEAN_MOTION":15.80864407,"ECCENTRICITY":0.00013266,"INCLINATION":97.2837,"RA_OF_ASC_NODE":312.5929,"ARG_OF_PERICENTER":93.7406,"MEAN_ANOMALY":266.4014,"EPHEMERIS_TYPE":0,"CLASSIFICATION_TYPE":"U","NORAD_CAT_ID":68617,"ELEMENT_SET_NO":999,"REV_AT_EPOCH":277,"BSTAR":0.00071424455,"MEAN_MOTION_DOT":0.0013918,"MEAN_MOTION_DDOT":0},{"OBJECT_NAME":"STARLINK-37179","OBJECT_ID":"2026-073S","EPOCH":"2026-04-25T06:00:02.000160","MEAN_MOTION":15.75140226,"ECCENTRICITY":8.712e-5,"INCLINATION":97.2851,"RA_OF_ASC_NODE":313.3626,"ARG_OF_PERICENTER":118.3235,"MEAN_ANOMALY":64.6135,"EPHEMERIS_TYPE":0,"CLASSIFICATION_TYPE":"U","NORAD_CAT_ID":68618,"ELEMENT_SET_NO":999,"REV_AT_EPOCH":402,"BSTAR":-0.00029618553,"MEAN_MOTION_DOT":-0.00043984,"MEAN_MOTION_DDOT":0},{"OBJECT_NAME":"STARLINK-37226","OBJECT_ID":"2026-073T","EPOCH":"2026-04-25T06:00:02.000160","MEAN_MOTION":15.75217536,"ECCENTRICITY":0.00010796,"INCLINATION":97.2852,"RA_OF_ASC_NODE":313.3492,"ARG_OF_PERICENTER":102.9866,"MEAN_ANOMALY":50.0057,"EPHEMERIS_TYPE":0,"CLASSIFICATION_TYPE":"U","NORAD_CAT_ID":68619,"ELEMENT_SET_NO":999,"REV_AT_EPOCH":393,"BSTAR":-0.00050499867,"MEAN_MOTION_DOT":-0.00074884,"MEAN_MOTION_DDOT":0},{"OBJECT_NAME":"STARLINK-37211","OBJECT_ID":"2026-073U","EPOCH":"2026-04-24T00:15:32.947200","MEAN_MOTION":15.80882862,"ECCENTRICITY":0.00015099,"INCLINATION":97.2835,"RA_OF_ASC_NODE":312.0597,"ARG_OF_PERICENTER":67.1109,"MEAN_ANOMALY":293.0319,"EPHEMERIS_TYPE":0,"CLASSIFICATION_TYPE":"U","NORAD_CAT_ID":68620,"ELEMENT_SET_NO":999,"REV_AT_EPOCH":269,"BSTAR":0.0011286665,"MEAN_MOTION_DOT":0.00222329,"MEAN_MOTION_DDOT":0},{"OBJECT_NAME":"STARLINK-37269","OBJECT_ID":"2026-073V","EPOCH":"2026-04-24T12:55:45.188544","MEAN_MOTION":15.75219246,"ECCENTRICITY":0.00012106,"INCLINATION":97.2858,"RA_OF_ASC_NODE":312.5669,"ARG_OF_PERICENTER":73.2136,"MEAN_ANOMALY":286.9262,"EPHEMERIS_TYPE":0,"CLASSIFICATION_TYPE":"U","NORAD_CAT_ID":68621,"ELEMENT_SET_NO":999,"REV_AT_EPOCH":277,"BSTAR":0.000829653,"MEAN_MOTION_DOT":0.00125612,"MEAN_MOTION_DDOT":0},{"OBJECT_NAME":"STARLINK-37252","OBJECT_ID":"2026-073W","EPOCH":"2026-04-25T06:00:02.000160","MEAN_MOTION":15.7522961,"ECCENTRICITY":0.00014998,"INCLINATION":97.2851,"RA_OF_ASC_NODE":313.3444,"ARG_OF_PERICENTER":89.8655,"MEAN_ANOMALY":51.1285,"EPHEMERIS_TYPE":0,"CLASSIFICATION_TYPE":"U","NORAD_CAT_ID":68622,"ELEMENT_SET_NO":999,"REV_AT_EPOCH":394,"BSTAR":-0.00075762633,"MEAN_MOTION_DOT":-0.00111862,"MEAN_MOTION_DDOT":0},{"OBJECT_NAME":"STARLINK-37284","OBJECT_ID":"2026-073X","EPOCH":"2026-04-24T18:26:09.128544","MEAN_MOTION":15.80883365,"ECCENTRICITY":0.00012724,"INCLINATION":97.2835,"RA_OF_ASC_NODE":312.8669,"ARG_OF_PERICENTER":89.8601,"MEAN_ANOMALY":270.2813,"EPHEMERIS_TYPE":0,"CLASSIFICATION_TYPE":"U","NORAD_CAT_ID":68623,"ELEMENT_SET_NO":999,"REV_AT_EPOCH":281,"BSTAR":0.00090754371,"MEAN_MOTION_DOT":0.0017783,"MEAN_MOTION_DDOT":0},{"OBJECT_NAME":"STARLINK-37231","OBJECT_ID":"2026-073Y","EPOCH":"2026-04-24T12:52:42.126816","MEAN_MOTION":15.75232335,"ECCENTRICITY":0.0001391,"INCLINATION":97.2856,"RA_OF_ASC_NODE":312.5696,"ARG_OF_PERICENTER":84.5034,"MEAN_ANOMALY":275.639,"EPHEMERIS_TYPE":0,"CLASSIFICATION_TYPE":"U","NORAD_CAT_ID":68624,"ELEMENT_SET_NO":999,"REV_AT_EPOCH":277,"BSTAR":0.00093167134,"MEAN_MOTION_DOT":0.00141418,"MEAN_MOTION_DDOT":0},{"OBJECT_NAME":"STARLINK-37249","OBJECT_ID":"2026-073Z","EPOCH":"2026-04-24T00:10:08.321664","MEAN_MOTION":15.80847987,"ECCENTRICITY":0.00016126,"INCLINATION":97.2834,"RA_OF_ASC_NODE":312.0659,"ARG_OF_PERICENTER":65.8106,"MEAN_ANOMALY":294.3331,"EPHEMERIS_TYPE":0,"CLASSIFICATION_TYPE":"U","NORAD_CAT_ID":68625,"ELEMENT_SET_NO":999,"REV_AT_EPOCH":269,"BSTAR":0.00067880776,"MEAN_MOTION_DOT":0.00132062,"MEAN_MOTION_DDOT":0},{"OBJECT_NAME":"STARLINK-37285","OBJECT_ID":"2026-073AA","EPOCH":"2026-04-24T12:49:08.805216","MEAN_MOTION":15.75215606,"ECCENTRICITY":0.00013924,"INCLINATION":97.2854,"RA_OF_ASC_NODE":312.5727,"ARG_OF_PERICENTER":71.082,"MEAN_ANOMALY":289.0596,"EPHEMERIS_TYPE":0,"CLASSIFICATION_TYPE":"U","NORAD_CAT_ID":68626,"ELEMENT_SET_NO":999,"REV_AT_EPOCH":277,"BSTAR":0.00072362558,"MEAN_MOTION_DOT":0.00109316,"MEAN_MOTION_DDOT":0},{"OBJECT_NAME":"STP-S29A OBJECT A","OBJECT_ID":"2026-074A","EPOCH":"2026-04-23T23:58:01.818624","MEAN_MOTION":15.23329947,"ECCENTRICITY":0.00176803,"INCLINATION":60.0197,"RA_OF_ASC_NODE":26.109,"ARG_OF_PERICENTER":323.9749,"MEAN_ANOMALY":36.0138,"EPHEMERIS_TYPE":0,"CLASSIFICATION_TYPE":"U","NORAD_CAT_ID":68627,"ELEMENT_SET_NO":999,"REV_AT_EPOCH":252,"BSTAR":0.00026503336,"MEAN_MOTION_DOT":6.09e-5,"MEAN_MOTION_DDOT":0},{"OBJECT_NAME":"MISR-C-1","OBJECT_ID":"2026-074B","EPOCH":"2026-04-24T03:05:28.171392","MEAN_MOTION":15.23423068,"ECCENTRICITY":0.00162016,"INCLINATION":60.0248,"RA_OF_ASC_NODE":25.6162,"ARG_OF_PERICENTER":327.0534,"MEAN_ANOMALY":32.9536,"EPHEMERIS_TYPE":0,"CLASSIFICATION_TYPE":"U","NORAD_CAT_ID":68628,"ELEMENT_SET_NO":999,"REV_AT_EPOCH":253,"BSTAR":0.00030385873,"MEAN_MOTION_DOT":7.041e-5,"MEAN_MOTION_DDOT":0},{"OBJECT_NAME":"RAWHIDE-1","OBJECT_ID":"2026-074C","EPOCH":"2026-04-24T04:33:03.104064","MEAN_MOTION":15.23896735,"ECCENTRICITY":0.00196243,"INCLINATION":60.0231,"RA_OF_ASC_NODE":25.3368,"ARG_OF_PERICENTER":331.9352,"MEAN_ANOMALY":28.0669,"EPHEMERIS_TYPE":0,"CLASSIFICATION_TYPE":"U","NORAD_CAT_ID":68629,"ELEMENT_SET_NO":999,"REV_AT_EPOCH":255,"BSTAR":0.00035506574,"MEAN_MOTION_DOT":8.412e-5,"MEAN_MOTION_DDOT":0},{"OBJECT_NAME":"STPSAT-7","OBJECT_ID":"2026-074D","EPOCH":"2026-04-24T02:54:12.205440","MEAN_MOTION":15.2411152,"ECCENTRICITY":0.00177882,"INCLINATION":60.0233,"RA_OF_ASC_NODE":25.5736,"ARG_OF_PERICENTER":336.5702,"MEAN_ANOMALY":23.4566,"EPHEMERIS_TYPE":0,"CLASSIFICATION_TYPE":"U","NORAD_CAT_ID":68630,"ELEMENT_SET_NO":999,"REV_AT_EPOCH":253,"BSTAR":0.00019545219,"MEAN_MOTION_DOT":4.523e-5,"MEAN_MOTION_DDOT":0}]
