STARLINK-37176          
1 68615U 26073P   26114.64756785  .00266464  00000+0  13423-2 0  9998
2 68615  97.2841 312.7262 0001332  57.0911 303.0485 15.80937773  2795
STARLINK-37152          
1 68616U 26073Q   26115.25002315 -.00105741  00000+0 -71571-3 0  9991
2 68616  97.2851 313.3295 0001701  87.1739  17.8261 15.75225434  3186
STARLINK-37186          
1 68617U 26073R   26114.51946604  .00139180  00000+0  71424-3 0  9997
2 68617  97.2837 312.5929 0001326  93.7406 266.4014 15.80864407  2770
STARLINK-37179          
1 68618U 26073S   26115.25002315 -.00043984  00000+0 -29619-3 0  9999
2 68618  97.2851 313.3626 0000871 118.3235  64.6135 15.75140226  4020
STARLINK-37226          
1 68619U 26073T   26115.25002315 -.00074884  00000+0 -50500-3 0  9996
2 68619  97.2852 313.3492 0001079 102.9866  50.0057 15.75217536  3933
STARLINK-37211          
1 68620U 26073U   26114.01079800  .00222329  00000+0  11287-2 0  9999
2 68620  97.2835 312.0597 0001509  67.1109 293.0319 15.80882862  2696
STARLINK-37269          
1 68621U 26073V   26114.53871746  .00125612  00000+0  82965-3 0  9995
2 68621  97.2858 312.5669 0001210  73.2136 286.9262 15.75219246  2775
STARLINK-37252          
1 68622U 26073W   26115.25002315 -.00111862  00000+0 -75763-3 0  9996
2 68622  97.2851 313.3444 0001499  89.8655  51.1285 15.75229610  3940
STARLINK-37284          
1 68623U 26073X   26114.76816121  .00177830  00000+0  90754-3 0  9992
2 68623  97.2835 312.8669 0001272  89.8601 270.2813 15.80883365  2811
STARLINK-37231          
1 68624U 26073Y   26114.53659869  .00141418  00000+0  93167-3 0  9996
2 68624  97.2856 312.5696 0001391  84.5034 275.6390 15.75232335  2779
STARLINK-37249          
1 68625U 26073Z   26114.00704076  .00132062  00000+0  67881-3 0  9999
2 68625  97.2834 312.0659 0001612  65.8106 294.3331 15.80847987  2693
STARLINK-37285          
1 68626U 26073AA  26114.53412969  .00109316  00000+0  72363-3 0  9992
2 68626  97.2854 312.5727 0001392  71.0820 289.0596 15.75215606  2778
STP-S29A OBJECT A       
1 68627U 26074A   26113.99863216  .00006090  00000+0  26503-3 0  9998
2 68627  60.0197  26.1090 0017680 323.9749  36.0138 15.23329947  2526
MISR-C-1                
1 68628U 26074B   26114.12879828  .00007041  00000+0  30386-3 0  9992
2 68628  60.0248  25.6162 0016201 327.0534  32.9536 15.23423068  2530
RAWHIDE-1               
1 68629U 26074C   26114.18961926  .00008412  00000+0  35507-3 0  9993
2 68629  60.0231  25.3368 0019624 331.9352  28.0669 15.23896735  2552
STPSAT-7                
1 68630U 26074D   26114.12097460  .00004523  00000+0  19545-3 0  9995
2 68630  60.0233  25.5736 0017788 336.5702  23.4566 15.24111520  2532
